$$SOE
2460742.500000000, A.D. 2025-Mar-08 00:00:00.0000, 5.608895972294209E+09, 3.104902443748797E+09, 1.656301277721546E+08,
2460749.500000000, A.D. 2025-Mar-15 00:00:00.0000, 5.607891674606039E+09, 3.107470902199950E+09, 1.660345738347685E+08,
2460756.500000000, A.D. 2025-Mar-22 00:00:00.0000, 5.606886347522338E+09, 3.110038704768528E+09, 1.664389890364103E+08,
2460763.500000000, A.D. 2025-Mar-29 00:00:00.0000, 5.605879992631829E+09, 3.112605855533899E+09, 1.668433734236701E+08,
2460770.500000000, A.D. 2025-Apr-05 00:00:00.0000, 5.604872610325072E+09, 3.115172357937713E+09, 1.672477270794995E+08,
2460777.500000000, A.D. 2025-Apr-12 00:00:00.0000, 5.603864200396595E+09, 3.117738214823419E+09, 1.676520500783532E+08,
2460784.500000000, A.D. 2025-Apr-19 00:00:00.0000, 5.602854762228441E+09, 3.120303428582611E+09, 1.680563424886281E+08,
2460791.500000000, A.D. 2025-Apr-26 00:00:00.0000, 5.601844294826805E+09, 3.122868001205562E+09, 1.684606043806033E+08,
2460798.500000000, A.D. 2025-May-03 00:00:00.0000, 5.600832796825431E+09, 3.125431934255452E+09, 1.688648358308284E+08,
2460805.500000000, A.D. 2025-May-10 00:00:00.0000, 5.599820266484366E+09, 3.127995228775333E+09, 1.692690369208395E+08,
2460812.500000000, A.D. 2025-May-17 00:00:00.0000, 5.598806701720783E+09, 3.130557885087120E+09, 1.696732077233589E+08,
2460819.500000000, A.D. 2025-May-24 00:00:00.0000, 5.597792100345821E+09, 3.133119902428419E+09, 1.700773482554877E+08,
2460826.500000000, A.D. 2025-May-31 00:00:00.0000, 5.596776460925199E+09, 3.135681278738424E+09, 1.704814583859251E+08,
2460833.500000000, A.D. 2025-Jun-07 00:00:00.0000, 5.595759783862658E+09, 3.138242011797903E+09, 1.708855378314285E+08,
2460840.500000000, A.D. 2025-Jun-14 00:00:00.0000, 5.594742070341703E+09, 3.140802101056609E+09, 1.712895864049089E+08,
2460847.500000000, A.D. 2025-Jun-21 00:00:00.0000, 5.593723320342386E+09, 3.143361546876946E+09, 1.716936041362257E+08,
2460854.500000000, A.D. 2025-Jun-28 00:00:00.0000, 5.592703532861324E+09, 3.145920348958753E+09, 1.720975911230175E+08,
2460861.500000000, A.D. 2025-Jul-05 00:00:00.0000, 5.591682706818266E+09, 3.148478506101817E+09, 1.725015474269536E+08,
2460868.500000000, A.D. 2025-Jul-12 00:00:00.0000, 5.590660841458171E+09, 3.151036016500942E+09, 1.729054730588963E+08,
2460875.500000000, A.D. 2025-Jul-19 00:00:00.0000, 5.589637936438382E+09, 3.153592877998644E+09, 1.733093679886491E+08,
2460882.500000000, A.D. 2025-Jul-26 00:00:00.0000, 5.588613991810833E+09, 3.156149088239060E+09, 1.737132321555071E+08,
2460889.500000000, A.D. 2025-Aug-02 00:00:00.0000, 5.587589007964657E+09, 3.158704644744871E+09, 1.741170654754875E+08,
2460896.500000000, A.D. 2025-Aug-09 00:00:00.0000, 5.586562985552644E+09, 3.161259544902846E+09, 1.745208678420377E+08,
2460903.500000000, A.D. 2025-Aug-16 00:00:00.0000, 5.585535925478455E+09, 3.163813785795036E+09, 1.749246391081715E+08,
2460910.500000000, A.D. 2025-Aug-23 00:00:00.0000, 5.584507829237243E+09, 3.166367363892397E+09, 1.753283790247538E+08,
2460917.500000000, A.D. 2025-Aug-30 00:00:00.0000, 5.583478699938610E+09, 3.168920275325099E+09, 1.757320871633422E+08,
2460924.500000000, A.D. 2025-Sep-06 00:00:00.0000, 5.582448542593782E+09, 3.171472517730008E+09, 1.761357630356617E+08,
2460931.500000000, A.D. 2025-Sep-13 00:00:00.0000, 5.581417361996210E+09, 3.174024091192594E+09, 1.765394063602870E+08,
2460938.500000000, A.D. 2025-Sep-20 00:00:00.0000, 5.580385161468886E+09, 3.176574996639030E+09, 1.769430170421913E+08,
2460945.500000000, A.D. 2025-Sep-27 00:00:00.0000, 5.579351943536889E+09, 3.179125234790174E+09, 1.773465950225623E+08,
2460952.500000000, A.D. 2025-Oct-04 00:00:00.0000, 5.578317710508445E+09, 3.181674806216866E+09, 1.777501402280984E+08,
2460959.500000000, A.D. 2025-Oct-11 00:00:00.0000, 5.577282464590909E+09, 3.184223711553703E+09, 1.781536525771081E+08,
2460966.500000000, A.D. 2025-Oct-18 00:00:00.0000, 5.576246207825277E+09, 3.186771951597169E+09, 1.785571319939964E+08,
2460973.500000000, A.D. 2025-Oct-25 00:00:00.0000, 5.575208941978795E+09, 3.189319527299417E+09, 1.789605784202135E+08,
2460980.500000000, A.D. 2025-Nov-01 00:00:00.0000, 5.574170668435043E+09, 3.191866439673625E+09, 1.793639918192170E+08,
2460987.500000000, A.D. 2025-Nov-08 00:00:00.0000, 5.573131388116036E+09, 3.194412689579945E+09, 1.797673721695421E+08,
2460994.500000000, A.D. 2025-Nov-15 00:00:00.0000, 5.572091101584111E+09, 3.196958277333979E+09, 1.801707194274535E+08,
2461001.500000000, A.D. 2025-Nov-22 00:00:00.0000, 5.571049809726274E+09, 3.199503202358308E+09, 1.805740334400029E+08,
2461008.500000000, A.D. 2025-Nov-29 00:00:00.0000, 5.570007514867710E+09, 3.202047464012558E+09, 1.809773139150903E+08,
2461015.500000000, A.D. 2025-Dec-06 00:00:00.0000, 5.568964220037012E+09, 3.204591063466319E+09, 1.813805606461010E+08,
2461022.500000000, A.D. 2025-Dec-13 00:00:00.0000, 5.567919926816697E+09, 3.207134003245008E+09, 1.817837736757498E+08,
2461029.500000000, A.D. 2025-Dec-20 00:00:00.0000, 5.566874635272224E+09, 3.209676285472155E+09, 1.821869531622283E+08,
2461036.500000000, A.D. 2025-Dec-27 00:00:00.0000, 5.565828344885642E+09, 3.212217911399837E+09, 1.825900992578483E+08,
2461043.500000000, A.D. 2026-Jan-03 00:00:00.0000, 5.564781055034677E+09, 3.214758881612281E+09, 1.829932120836949E+08,
2461050.500000000, A.D. 2026-Jan-10 00:00:00.0000, 5.563732765127008E+09, 3.217299196224402E+09, 1.833962917347698E+08,
2461057.500000000, A.D. 2026-Jan-17 00:00:00.0000, 5.562683474622297E+09, 3.219838854984503E+09, 1.837993382868824E+08,
2461064.500000000, A.D. 2026-Jan-24 00:00:00.0000, 5.561633183019910E+09, 3.222377857304730E+09, 1.842023518000810E+08,
2461071.500000000, A.D. 2026-Jan-31 00:00:00.0000, 5.560581889835791E+09, 3.224916202212776E+09, 1.846053323159759E+08,
2461078.500000000, A.D. 2026-Feb-07 00:00:00.0000, 5.559529594629994E+09, 3.227453888168408E+09, 1.850082798387380E+08,
2461085.500000000, A.D. 2026-Feb-14 00:00:00.0000, 5.558476297337955E+09, 3.229990912730436E+09, 1.854111942754166E+08,
2461092.500000000, A.D. 2026-Feb-21 00:00:00.0000, 5.557421999293030E+09, 3.232527272651915E+09, 1.858140753472967E+08,
2461099.500000000, A.D. 2026-Feb-28 00:00:00.0000, 5.556366703855489E+09, 3.235062965557684E+09, 1.862169226661520E+08,
2461106.500000000, A.D. 2026-Mar-07 00:00:00.0000, 5.555310414589403E+09, 3.237597991254626E+09, 1.866197360049193E+08,
2461113.500000000, A.D. 2026-Mar-14 00:00:00.0000, 5.554253133763152E+09, 3.240132350342064E+09, 1.870225153176653E+08,
2461120.500000000, A.D. 2026-Mar-21 00:00:00.0000, 5.553194862956389E+09, 3.242666043020338E+09, 1.874252605822480E+08,
2461127.500000000, A.D. 2026-Mar-28 00:00:00.0000, 5.552135603764134E+09, 3.245199069126266E+09, 1.878279717341657E+08,
2461134.500000000, A.D. 2026-Apr-04 00:00:00.0000, 5.551075357994205E+09, 3.247731428429839E+09, 1.882306486682024E+08,
2461141.500000000, A.D. 2026-Apr-11 00:00:00.0000, 5.550014127631976E+09, 3.250263120832177E+09, 1.886332912535136E+08,
2461148.500000000, A.D. 2026-Apr-18 00:00:00.0000, 5.548951914731807E+09, 3.252794146458048E+09, 1.890358993472054E+08,
2461155.500000000, A.D. 2026-Apr-25 00:00:00.0000, 5.547888721281259E+09, 3.255324505657633E+09, 1.894384728035939E+08,
2461162.500000000, A.D. 2026-May-02 00:00:00.0000, 5.546824549069080E+09, 3.257854198887917E+09, 1.898410114741106E+08,
2461169.500000000, A.D. 2026-May-09 00:00:00.0000, 5.545759399681984E+09, 3.260383226407485E+09, 1.902435151811757E+08,
2461176.500000000, A.D. 2026-May-16 00:00:00.0000, 5.544693275008504E+09, 3.262911587923084E+09, 1.906459836428082E+08,
2461183.500000000, A.D. 2026-May-23 00:00:00.0000, 5.543626178302075E+09, 3.265439283210363E+09, 1.910484164268374E+08,
2461190.500000000, A.D. 2026-May-30 00:00:00.0000, 5.542558113725101E+09, 3.267966314028378E+09, 1.914508131514764E+08,
2461197.500000000, A.D. 2026-Jun-06 00:00:00.0000, 5.541489084056767E+09, 3.270492684054333E+09, 1.918531736937630E+08,
2461204.500000000, A.D. 2026-Jun-13 00:00:00.0000, 5.540419090230662E+09, 3.273018397037507E+09, 1.922554980857537E+08,
2461211.500000000, A.D. 2026-Jun-20 00:00:00.0000, 5.539348132201165E+09, 3.275543456098521E+09, 1.926577863833630E+08,
2461218.500000000, A.D. 2026-Jun-27 00:00:00.0000, 5.538276209440238E+09, 3.278067863834126E+09, 1.930600386355851E+08,
2461225.500000000, A.D. 2026-Jul-04 00:00:00.0000, 5.537203321064531E+09, 3.280591622452626E+09, 1.934622548905203E+08,
2461232.500000000, A.D. 2026-Jul-11 00:00:00.0000, 5.536129465846693E+09, 3.283114733808105E+09, 1.938644352038460E+08,
2461239.500000000, A.D. 2026-Jul-18 00:00:00.0000, 5.535054642203600E+09, 3.285637199359235E+09, 1.942665796430752E+08,
2461246.500000000, A.D. 2026-Jul-25 00:00:00.0000, 5.533978848185934E+09, 3.288159020055470E+09, 1.946686882853539E+08,
2461253.500000000, A.D. 2026-Aug-01 00:00:00.0000, 5.532902081517169E+09, 3.290680196102555E+09, 1.950707612002530E+08,
2461260.500000000, A.D. 2026-Aug-08 00:00:00.0000, 5.531824339896812E+09, 3.293200726571564E+09, 1.954727983947773E+08,
2461267.500000000, A.D. 2026-Aug-15 00:00:00.0000, 5.530745621982864E+09, 3.295720609301981E+09, 1.958747997192264E+08,
2461274.500000000, A.D. 2026-Aug-22 00:00:00.0000, 5.529665928292347E+09, 3.298239842320255E+09, 1.962767649034686E+08,
2461281.500000000, A.D. 2026-Aug-29 00:00:00.0000, 5.528585259730681E+09, 3.300758425401269E+09, 1.966786938213613E+08,
2461288.500000000, A.D. 2026-Sep-05 00:00:00.0000, 5.527503615883458E+09, 3.303276358904735E+09, 1.970805865532424E+08,
2461295.500000000, A.D. 2026-Sep-12 00:00:00.0000, 5.526420995525398E+09, 3.305793642382331E+09, 1.974824432252946E+08,
2461302.500000000, A.D. 2026-Sep-19 00:00:00.0000, 5.525337397472705E+09, 3.308310274499732E+09, 1.978842639238577E+08,
2461309.500000000, A.D. 2026-Sep-26 00:00:00.0000, 5.524252820920081E+09, 3.310826253340659E+09, 1.982860486872251E+08,
2461316.500000000, A.D. 2026-Oct-03 00:00:00.0000, 5.523167265510975E+09, 3.313341576642251E+09, 1.986877975153208E+08,
$$EOE